NORAD_CAT_ID,OBJECT_NAME,OBJECT_TYPE,EPOCH,MEAN_MOTION,ECCENTRICITY,INCLINATION,RA_OF_ASC_NODE,ARG_OF_PERICENTER,MEAN_ANOMALY,BSTAR,MEAN_MOTION_DOT,MEAN_MOTION_DDOT,TLE_LINE0,TLE_LINE1,TLE_LINE2,SEMIMAJOR_AXIS,PERIOD,APOGEE,PERIGEE,DECAYED
51966.0,STARLINK-3699,PAYLOAD,2024-02-28 20:48:50,15.06394601,0.0001495,53.0541,112.0206,87.6674,272.4486,9.3693e-05,1.114e-05,0.0,0 STARLINK-3699,1 51966U 22025L   24059.86724541  .00001114  00000-0  93693-4 0  9996,2 51966  53.0541 112.0206 0001495  87.6674 272.4486 15.06394601110501,6925.365,95.592,548.265,546.195,0.0
51966.0,STARLINK-3699,PAYLOAD,2024-02-29 09:33:08,15.06400511,0.0001443,53.0537,109.6361,93.3497,266.7657,9.2467e-05,1.096e-05,0.0,0 STARLINK-3699,1 51966U 22025L   24060.39801680  .00001096  00000-0  92467-4 0  9993,2 51966  53.0537 109.6361 0001443  93.3497 266.7657 15.06400511109490,6925.347,95.592,548.211,546.213,0.0
51966.0,STARLINK-3699,PAYLOAD,2024-02-29 20:41:55,15.06397457,0.0001402,53.0534,107.5511,95.6156,264.4992,4.8991e-05,4.48e-06,0.0,0 STARLINK-3699,1 51966U 22025L   24060.86244691  .00000448  00000-0  48991-4 0  9991,2 51966  53.0534 107.5511 0001402  95.6156 264.4992 15.06397457109562,6925.356,95.592,548.192,546.25,0.0
51966.0,STARLINK-3699,PAYLOAD,2024-03-01 12:37:18,15.06404902,0.0001499,53.0542,104.5728,92.2691,267.847,5.3016e-05,5.08e-06,0.0,0 STARLINK-3699,1 51966U 22025L   24061.52591001  .00000508  00000-0  53016-4 0  9996,2 51966  53.0542 104.5728 0001499  92.2691 267.8470 15.06404902109664,6925.334,95.592,548.237,546.16,0.0
51966.0,STARLINK-3699,PAYLOAD,2024-03-02 07:43:47,15.06396565,0.0001685,53.0538,100.9973,94.6273,265.4908,-2.107e-05,-5.95e-06,0.0,0 STARLINK-3699,1 51966U 22025L   24062.32207952 -.00000595  00000-0 -21070-4 0  9997,2 51966  53.0538 100.9973 0001685  94.6273 265.4908 15.06396565110870,6925.359,95.592,548.391,546.057,0.0
51966.0,STARLINK-3699,PAYLOAD,2024-03-03 09:12:25,15.06393807,0.0001436,53.0537,96.2336,83.2467,276.8685,-2.8126e-06,-3.23e-06,0.0,0 STARLINK-3699,1 51966U 22025L   24063.38363300 -.00000323  00000-0 -28126-5 0  9993,2 51966  53.0537  96.2336 0001436  83.2467 276.8685 15.06393807111035,6925.368,95.593,548.227,546.238,0.0
51966.0,STARLINK-3699,PAYLOAD,2024-03-04 10:41:03,15.06403793,0.0001597,53.0546,91.4694,100.1314,259.9855,0.00016789,2.22e-05,0.0,0 STARLINK-3699,1 51966U 22025L   24064.44517370  .00002220  00000-0  16789-3 0  9995,2 51966  53.0546  91.4694 0001597 100.1314 259.9855 15.06403793111191,6925.337,95.592,548.308,546.096,0.0
51966.0,STARLINK-3699,PAYLOAD,2024-03-04 18:38:45,15.06389988,0.0001283,53.0532,89.978,90.6583,269.4553,4.5104e-05,3.9e-06,0.0,0 STARLINK-3699,1 51966U 22025L   24064.77692007  .00000390  00000-0  45104-4 0  9992,2 51966  53.0532  89.9780 0001283  90.6583 269.4553 15.06389988111243,6925.379,95.593,548.133,546.356,0.0
51966.0,STARLINK-3699,PAYLOAD,2024-03-05 10:34:10,15.06387012,0.0001751,53.0544,87.0002,89.1118,271.0072,-7.7301e-06,-3.97e-06,0.0,0 STARLINK-3699,1 51966U 22025L   24065.44039765 -.00000397  00000-0 -77301-5 0  9997,2 51966  53.0544  87.0002 0001751  89.1118 271.0072 15.06387012110250,6925.388,95.593,548.466,546.041,0.0
51966.0,STARLINK-3699,PAYLOAD,2024-03-06 10:27:14,15.06412073,0.0001624,53.0542,82.5328,97.21,262.9074,9.5996e-05,1.149e-05,0.0,0 STARLINK-3699,1 51966U 22025L   24066.43558240  .00001149  00000-0  95996-4 0  9994,2 51966  53.0542  82.5328 0001624  97.2100 262.9074 15.06412073111493,6925.312,95.591,548.301,546.052,0.0
51966.0,STARLINK-3699,PAYLOAD,2024-03-06 18:24:56,15.06409805,0.0001319,53.0528,81.0403,93.8836,266.2304,2.3419e-05,6.7e-07,0.0,0 STARLINK-3699,1 51966U 22025L   24066.76731733  .00000067  00000-0  23419-4 0  9999,2 51966  53.0528  81.0403 0001319  93.8836 266.2304 15.06409805111542,6925.319,95.592,548.097,546.27,0.0
51966.0,STARLINK-3699,PAYLOAD,2024-03-07 10:20:20,15.06404378,0.00015,53.0535,78.0615,105.5584,254.5571,0.00016612,2.194e-05,0.0,0 STARLINK-3699,1 51966U 22025L   24067.43078742  .00002194  00000-0  16612-3 0  9997,2 51966  53.0535  78.0615 0001500 105.5584 254.5571 15.06404378110550,6925.335,95.592,548.239,546.161,0.0
51966.0,STARLINK-3699,PAYLOAD,2024-03-08 00:40:12,15.0639768,0.0001903,53.0553,75.3755,125.1673,234.9495,-2.9257e-05,-7.17e-06,0.0,0 STARLINK-3699,1 51966U 22025L   24068.02791713 -.00000717  00000-0 -29257-4 0  9994,2 51966  53.0553  75.3755 0001903 125.1673 234.9495 15.06397680111734,6925.356,95.592,548.539,545.903,0.0
51966.0,STARLINK-3699,PAYLOAD,2024-03-08 10:13:26,15.06403437,0.000146,53.0538,73.5953,96.1014,264.0141,-2.4428e-05,-6.45e-06,0.0,0 STARLINK-3699,1 51966U 22025L   24068.42599584 -.00000645  00000-0 -24428-4 0  9995,2 51966  53.0538  73.5953 0001460  96.1014 264.0141 15.06403437110707,6925.338,95.592,548.214,546.192,0.0
51966.0,STARLINK-3699,PAYLOAD,2024-03-09 03:44:22,15.06397399,0.0001491,53.0534,70.3187,92.6644,267.4516,4.0317e-05,3.19e-06,0.0,0 STARLINK-3699,1 51966U 22025L   24069.15581398  .00000319  00000-0  40317-4 0  9991,2 51966  53.0534  70.3187 0001491  92.6644 267.4516 15.06397399111906,6925.357,95.592,548.254,546.189,0.0
51966.0,STARLINK-3699,PAYLOAD,2024-03-09 06:55:26,15.06401988,0.0001467,53.0537,69.7234,94.1436,265.9721,1.9121e-05,3e-08,0.0,0 STARLINK-3699,1 51966U 22025L   24069.28850598  .00000003  00000-0  19121-4 0  9995,2 51966  53.0537  69.7234 0001467  94.1436 265.9721 15.06401988110835,6925.342,95.592,548.223,546.192,0.0
51966.0,STARLINK-3699,PAYLOAD,2024-03-09 16:28:41,15.06401807,0.0001488,53.0537,67.9363,98.1407,261.9751,1.4637e-05,-6.3e-07,0.0,0 STARLINK-3699,1 51966U 22025L   24069.68658633 -.00000063  00000-0  14637-4 0  9999,2 51966  53.0537  67.9363 0001488  98.1407 261.9751 15.06401807110898,6925.343,95.592,548.239,546.178,0.0
51966.0,STARLINK-3699,PAYLOAD,2024-03-10 05:13:01,15.06364667,0.0001747,53.0552,65.553,94.7743,265.3446,0.0006135,8.86e-05,0.0,0 STARLINK-3699,1 51966U 22025L   24070.21737451  .00008860  00000-0  61350-3 0  9991,2 51966  53.0552  65.5530 0001747  94.7743 265.3446 15.06364667112060,6925.457,95.594,548.532,546.112,0.0
51966.0,STARLINK-3699,PAYLOAD,2024-03-10 09:59:37,15.06386571,0.0001577,53.0554,64.6591,96.0153,264.1016,0.00032516,4.563e-05,0.0,0 STARLINK-3699,1 51966U 22025L   24070.41640889  .00004563  00000-0  32516-3 0  9999,2 51966  53.0554  64.6591 0001577  96.0153 264.1016 15.06386571112091,6925.39,95.593,548.347,546.163,0.0
51966.0,STARLINK-3699,PAYLOAD,2024-03-10 16:21:46,15.06399369,0.0001592,53.0559,63.4679,84.4254,275.6917,9.1333e-05,1.079e-05,0.0,0 STARLINK-3699,1 51966U 22025L   24070.68179228  .00001079  00000-0  91333-4 0  9994,2 51966  53.0559  63.4679 0001592  84.4254 275.6917 15.06399369112131,6925.35,95.592,548.318,546.113,0.0
51966.0,STARLINK-3699,PAYLOAD,2024-03-11 05:06:06,15.06394627,0.0001607,53.0562,61.0856,85.7827,274.3346,2.7483e-05,1.28e-06,0.0,0 STARLINK-3699,1 51966U 22025L   24071.21257288  .00000128  00000-0  27483-4 0  9996,2 51966  53.0562  61.0856 0001607  85.7827 274.3346 15.06394627112216,6925.365,95.592,548.343,546.117,0.0
51966.0,STARLINK-3699,PAYLOAD,2024-03-11 06:41:38,15.06395586,0.0001589,53.0562,60.7878,85.2881,274.8289,3.2684e-05,2.05e-06,0.0,0 STARLINK-3699,1 51966U 22025L   24071.27891885  .00000205  00000-0  32684-4 0  9994,2 51966  53.0562  60.7878 0001589  85.2881 274.8289 15.06395586111136,6925.362,95.592,548.328,546.127,0.0
51966.0,STARLINK-3699,PAYLOAD,2024-03-12 08:10:15,15.06405339,0.0001453,53.0548,56.0221,88.1472,271.9683,0.00010379,1.265e-05,0.0,0 STARLINK-3699,1 51966U 22025L   24072.34046064  .00001265  00000-0  10379-3 0  9997,2 51966  53.0548  56.0221 0001453  88.1472 271.9683 15.06405339112380,6925.332,95.592,548.203,546.191,0.0
51966.0,STARLINK-3699,PAYLOAD,2024-03-12 16:07:58,15.06399301,0.0001466,53.0546,54.5321,87.6919,272.4238,4.1871e-05,3.42e-06,0.0,0 STARLINK-3699,1 51966U 22025L   24072.67219926  .00000342  00000-0  41871-4 0  9999,2 51966  53.0546  54.5321 0001466  87.6919 272.4238 15.06399301112435,6925.351,95.592,548.231,546.2,0.0
51966.0,STARLINK-3699,PAYLOAD,2024-03-13 04:52:16,15.0640359,0.0001482,53.0554,52.1491,99.9304,260.1852,5.4752e-05,5.34e-06,0.0,0 STARLINK-3699,1 51966U 22025L   24073.20297051  .00000534  00000-0  54752-4 0  9999,2 51966  53.0554  52.1491 0001482  99.9304 260.1852 15.06403590111428,6925.338,95.592,548.229,546.176,0.0
51966.0,STARLINK-3699,PAYLOAD,2024-03-13 22:23:13,15.06369125,9.83e-05,53.0566,48.8762,101.072,259.0379,0.00048202,6.9e-05,0.0,0 STARLINK-3699,1 51966U 22025L   24073.93279666  .00006900  00000-0  48202-3 0  9996,2 51966  53.0566  48.8762 0000983 101.0720 259.0379 15.06369125111534,6925.443,95.594,547.989,546.627,0.0
51966.0,STARLINK-3699,PAYLOAD,2024-03-14 04:45:22,15.06404533,0.0001475,53.0562,47.6818,114.9761,245.1381,1.6401e-05,-3.7e-07,0.0,0 STARLINK-3699,1 51966U 22025L   24074.19817222 -.00000037  00000-0  16401-4 0  9994,2 51966  53.0562  47.6818 0001475 114.9761 245.1381 15.06404533112661,6925.335,95.592,548.221,546.178,0.0
51966.0,STARLINK-3699,PAYLOAD,2024-03-14 22:16:19,15.06391476,0.0001631,53.0564,44.409,86.8511,273.2665,-4.536e-05,-9.57e-06,0.0,0 STARLINK-3699,1 51966U 22025L   24074.92800012 -.00000957  00000-0 -45360-4 0  9992,2 51966  53.0564  44.4090 0001631  86.8511 273.2665 15.06391476111683,6925.375,95.593,548.369,546.11,0.0
51966.0,STARLINK-3699,PAYLOAD,2024-03-15 04:38:28,15.0639378,0.0001587,53.0559,43.2169,104.5737,255.5429,9.8738e-06,-1.34e-06,0.0,0 STARLINK-3699,1 51966U 22025L   24075.19338409 -.00000134  00000-0  98738-5 0  9992,2 51966  53.0559  43.2169 0001587 104.5737 255.5429 15.06393780112816,6925.368,95.593,548.332,546.134,0.0
51966.0,STARLINK-3699,PAYLOAD,2024-03-15 07:49:32,15.06396357,0.0001604,53.0558,42.62,106.0063,254.1103,3.7156e-05,2.72e-06,0.0,0 STARLINK-3699,1 51966U 22025L   24075.32607567  .00000272  00000-0  37156-4 0  9999,2 51966  53.0558  42.6200 0001604 106.0063 254.1103 15.06396357111741,6925.36,95.592,548.336,546.114,0.0
